{
  "type": "FeatureCollection",
  "features": [
    {
      "type": "Feature",
      "properties": {
        "norad_id": 35993,
        "name": "COSMOS 2251 DEB",
        "group": "cosmos-2251-debris",
        "lat": 61.191240485471575,
        "lon": -10.07394894181207,
        "alt_km": 666.1462854449137,
        "timestamp": "2025-12-20T03:42:47.791253+00:00",
        "meta_object_name": "COSMOS 2251 DEB",
        "meta_object_id": "1993-036AWK",
        "meta_epoch": "2025-12-17T04:57:26.962848",
        "meta_mean_motion": 14.65334596,
        "meta_eccentricity": 0.00286802,
        "meta_inclination": 74.0146,
        "meta_ra_of_asc_node": 324.1891,
        "meta_arg_of_pericenter": 152.382,
        "meta_mean_anomaly": 207.888,
        "meta_ephemeris_type": 0,
        "meta_classification_type": "U",
        "meta_norad_cat_id": 35993,
        "meta_element_set_no": 999,
        "meta_rev_at_epoch": 60508,
        "meta_bstar": 0.00055537326,
        "meta_mean_motion_dot": 2.986e-05,
        "meta_mean_motion_ddot": 0,
        "tle_line1": "1 35993U 93036AWK 25351.20656207  .00002986  00000+0  55537-3 0  9996",
        "tle_line2": "2 35993  74.0146 324.1891 0028680 152.3820 207.8880 14.65334596605084"
      },
      "geometry": {
        "type": "Point",
        "coordinates": [
          -10.07394894181207,
          61.191240485471575
        ]
      }
    },
    {
      "type": "Feature",
      "properties": {
        "norad_id": 35996,
        "name": "COSMOS 2251 DEB",
        "group": "cosmos-2251-debris",
        "lat": -59.18347651882032,
        "lon": -63.16484360854112,
        "alt_km": 520.0725646000374,
        "timestamp": "2025-12-20T03:42:47.791263+00:00",
        "meta_object_name": "COSMOS 2251 DEB",
        "meta_object_id": "1993-036AWN",
        "meta_epoch": "2025-12-15T22:25:06.327264",
        "meta_mean_motion": 15.09228347,
        "meta_eccentricity": 0.00876626,
        "meta_inclination": 74.0159,
        "meta_ra_of_asc_node": 96.8248,
        "meta_arg_of_pericenter": 187.0066,
        "meta_mean_anomaly": 172.9909,
        "meta_ephemeris_type": 0,
        "meta_classification_type": "U",
        "meta_norad_cat_id": 35996,
        "meta_element_set_no": 999,
        "meta_rev_at_epoch": 72374,
        "meta_bstar": 0.00054952121,
        "meta_mean_motion_dot": 9.536e-05,
        "meta_mean_motion_ddot": 0,
        "tle_line1": "1 35996U 93036AWN 25349.93410101  .00009536  00000+0  54952-3 0  9995",
        "tle_line2": "2 35996  74.0159  96.8248 0087662 187.0066 172.9909 15.09228347723745"
      },
      "geometry": {
        "type": "Point",
        "coordinates": [
          -63.16484360854112,
          -59.18347651882032
        ]
      }
    },
    {
      "type": "Feature",
      "properties": {
        "norad_id": 35997,
        "name": "COSMOS 2251 DEB",
        "group": "cosmos-2251-debris",
        "lat": -46.67716654669931,
        "lon": 11.008769248693987,
        "alt_km": 717.2700006814457,
        "timestamp": "2025-12-20T03:42:47.791274+00:00",
        "meta_object_name": "COSMOS 2251 DEB",
        "meta_object_id": "1993-036AWP",
        "meta_epoch": "2025-12-19T05:09:14.184000",
        "meta_mean_motion": 14.51343045,
        "meta_eccentricity": 0.0015535,
        "meta_inclination": 74.0424,
        "meta_ra_of_asc_node": 175.1147,
        "meta_arg_of_pericenter": 250.287,
        "meta_mean_anomaly": 109.6616,
        "meta_ephemeris_type": 0,
        "meta_classification_type": "U",
        "meta_norad_cat_id": 35997,
        "meta_element_set_no": 999,
        "meta_rev_at_epoch": 70978,
        "meta_bstar": 0.00045886,
        "meta_mean_motion_dot": 1.803e-05,
        "meta_mean_motion_ddot": 0,
        "tle_line1": "1 35997U 93036AWP 25353.21474750  .00001803  00000+0  45886-3 0  9997",
        "tle_line2": "2 35997  74.0424 175.1147 0015535 250.2870 109.6616 14.51343045709785"
      },
      "geometry": {
        "type": "Point",
        "coordinates": [
          11.008769248693987,
          -46.67716654669931
        ]
      }
    },
    {
      "type": "Feature",
      "properties": {
        "norad_id": 36005,
        "name": "COSMOS 2251 DEB",
        "group": "cosmos-2251-debris",
        "lat": 24.612674451837332,
        "lon": -107.40631824473084,
        "alt_km": 712.2004191811484,
        "timestamp": "2025-12-20T03:42:47.791284+00:00",
        "meta_object_name": "COSMOS 2251 DEB",
        "meta_object_id": "1993-036AWX",
        "meta_epoch": "2025-12-19T12:04:06.937248",
        "meta_mean_motion": 14.47367742,
        "meta_eccentricity": 0.0061732,
        "meta_inclination": 74.0272,
        "meta_ra_of_asc_node": 81.3523,
        "meta_arg_of_pericenter": 217.3052,
        "meta_mean_anomaly": 142.3813,
        "meta_ephemeris_type": 0,
        "meta_classification_type": "U",
        "meta_norad_cat_id": 36005,
        "meta_element_set_no": 999,
        "meta_rev_at_epoch": 87682,
        "meta_bstar": 0.00013946,
        "meta_mean_motion_dot": 4.95e-06,
        "meta_mean_motion_ddot": 0,
        "tle_line1": "1 36005U 93036AWX 25353.50285807  .00000495  00000+0  13946-3 0  9991",
        "tle_line2": "2 36005  74.0272  81.3523 0061732 217.3052 142.3813 14.47367742876827"
      },
      "geometry": {
        "type": "Point",
        "coordinates": [
          -107.40631824473084,
          24.612674451837332
        ]
      }
    },
    {
      "type": "Feature",
      "properties": {
        "norad_id": 36045,
        "name": "COSMOS 2251 DEB",
        "group": "cosmos-2251-debris",
        "lat": 73.3886390671608,
        "lon": 146.8513166135806,
        "alt_km": 626.756936043852,
        "timestamp": "2025-12-20T03:42:47.791294+00:00",
        "meta_object_name": "COSMOS 2251 DEB",
        "meta_object_id": "1993-036AXG",
        "meta_epoch": "2025-12-17T21:23:36.435552",
        "meta_mean_motion": 14.69971183,
        "meta_eccentricity": 0.0048002,
        "meta_inclination": 73.7643,
        "meta_ra_of_asc_node": 48.9349,
        "meta_arg_of_pericenter": 60.9199,
        "meta_mean_anomaly": 299.6765,
        "meta_ephemeris_type": 0,
        "meta_classification_type": "U",
        "meta_norad_cat_id": 36045,
        "meta_element_set_no": 999,
        "meta_rev_at_epoch": 8464,
        "meta_bstar": 0.0014164853,
        "meta_mean_motion_dot": 8.618e-05,
        "meta_mean_motion_ddot": 0,
        "tle_line1": "1 36045U 93036AXG 25351.89139393  .00008618  00000+0  14165-2 0  9991",
        "tle_line2": "2 36045  73.7643  48.9349 0048002  60.9199 299.6765 14.69971183 84640"
      },
      "geometry": {
        "type": "Point",
        "coordinates": [
          146.8513166135806,
          73.3886390671608
        ]
      }
    },
    {
      "type": "Feature",
      "properties": {
        "norad_id": 36046,
        "name": "COSMOS 2251 DEB",
        "group": "cosmos-2251-debris",
        "lat": 28.138622760973156,
        "lon": -88.96853406536322,
        "alt_km": 636.8697176027244,
        "timestamp": "2025-12-20T03:42:47.791304+00:00",
        "meta_object_name": "COSMOS 2251 DEB",
        "meta_object_id": "1993-036AXH",
        "meta_epoch": "2025-12-16T01:21:09.149760",
        "meta_mean_motion": 14.65292015,
        "meta_eccentricity": 0.00556784,
        "meta_inclination": 74.0168,
        "meta_ra_of_asc_node": 270.107,
        "meta_arg_of_pericenter": 55.1264,
        "meta_mean_anomaly": 324.2312,
        "meta_ephemeris_type": 0,
        "meta_classification_type": "U",
        "meta_norad_cat_id": 36046,
        "meta_element_set_no": 999,
        "meta_rev_at_epoch": 64052,
        "meta_bstar": 0.00042488876,
        "meta_mean_motion_dot": 2.313e-05,
        "meta_mean_motion_ddot": 0,
        "tle_line1": "1 36046U 93036AXH 25350.05635590  .00002313  00000+0  42489-3 0  9996",
        "tle_line2": "2 36046  74.0168 270.1070 0055678  55.1264 324.2312 14.65292015640527"
      },
      "geometry": {
        "type": "Point",
        "coordinates": [
          -88.96853406536322,
          28.138622760973156
        ]
      }
    },
    {
      "type": "Feature",
      "properties": {
        "norad_id": 36047,
        "name": "COSMOS 2251 DEB",
        "group": "cosmos-2251-debris",
        "lat": 59.78444577983719,
        "lon": -11.380188428803857,
        "alt_km": 570.9304925724355,
        "timestamp": "2025-12-20T03:42:47.791314+00:00",
        "meta_object_name": "COSMOS 2251 DEB",
        "meta_object_id": "1993-036AXJ",
        "meta_epoch": "2025-12-18T04:53:35.477376",
        "meta_mean_motion": 14.9621864,
        "meta_eccentricity": 0.00084577,
        "meta_inclination": 74.0358,
        "meta_ra_of_asc_node": 323.1177,
        "meta_arg_of_pericenter": 350.3843,
        "meta_mean_anomaly": 9.7178,
        "meta_ephemeris_type": 0,
        "meta_classification_type": "U",
        "meta_norad_cat_id": 36047,
        "meta_element_set_no": 999,
        "meta_rev_at_epoch": 66021,
        "meta_bstar": 0.0023104884,
        "meta_mean_motion_dot": 0.00026146,
        "meta_mean_motion_ddot": 0,
        "tle_line1": "1 36047U 93036AXJ 25352.20388284  .00026146  00000+0  23105-2 0  9994",
        "tle_line2": "2 36047  74.0358 323.1177 0008457 350.3843   9.7178 14.96218640660211"
      },
      "geometry": {
        "type": "Point",
        "coordinates": [
          -11.380188428803857,
          59.78444577983719
        ]
      }
    }
  ]
}